{
 "generated_at": "2026-07-12T07:29:19Z",
 "sources": [
  {
   "name": "CelesTrak",
   "url": "https://celestrak.org/NORAD/elements/",
   "license": "frei verfügbar; Attribution. Ursprünglich USSPACECOM/Space-Track."
  },
  {
   "name": "GCAT (J. McDowell, planet4589.org)",
   "url": "https://planet4589.org/space/gcat/",
   "license": "CC-BY 4.0"
  }
 ],
 "satellites": [
  {
   "norad": 28376,
   "name": "AURA",
   "intl": "2004-026A",
   "group": "resource",
   "gcat": {
    "class": "C",
    "category": "EOSCI",
    "owner": "GSFC",
    "state": "US"
   },
   "omm": {
    "OBJECT_NAME": "AURA",
    "OBJECT_ID": "2004-026A",
    "EPOCH": "2026-07-11T21:49:29.650944",
    "MEAN_MOTION": 14.61365046,
    "ECCENTRICITY": 0.00012735,
    "INCLINATION": 98.3429,
    "RA_OF_ASC_NODE": 149.5696,
    "ARG_OF_PERICENTER": 92.4619,
    "MEAN_ANOMALY": 267.6727,
    "EPHEMERIS_TYPE": 0,
    "CLASSIFICATION_TYPE": "U",
    "NORAD_CAT_ID": 28376,
    "ELEMENT_SET_NO": 999,
    "REV_AT_EPOCH": 16982,
    "BSTAR": 0.000092511754,
    "MEAN_MOTION_DOT": 0.00000409,
    "MEAN_MOTION_DDOT": 0
   }
  },
  {
   "norad": 63772,
   "name": "BIOMASS",
   "intl": "2025-090A",
   "group": "resource",
   "gcat": {
    "class": "C",
    "category": "EOSCI",
    "owner": "ESA",
    "state": "I-ESA"
   },
   "omm": {
    "OBJECT_NAME": "BIOMASS",
    "OBJECT_ID": "2025-090A",
    "EPOCH": "2026-07-11T20:30:33.223680",
    "MEAN_MOTION": 14.67537912,
    "ECCENTRICITY": 0.00014882,
    "INCLINATION": 98.0746,
    "RA_OF_ASC_NODE": 19.8106,
    "ARG_OF_PERICENTER": 92.038,
    "MEAN_ANOMALY": 268.0995,
    "EPHEMERIS_TYPE": 0,
    "CLASSIFICATION_TYPE": "U",
    "NORAD_CAT_ID": 63772,
    "ELEMENT_SET_NO": 999,
    "REV_AT_EPOCH": 6430,
    "BSTAR": 0.00010835531,
    "MEAN_MOTION_DOT": 0.00000566,
    "MEAN_MOTION_DDOT": 0
   }
  },
  {
   "norad": 57693,
   "name": "CAPELLA-11 (ACADIA-1)",
   "intl": "2023-126A",
   "group": "sar",
   "gcat": {
    "class": "B",
    "category": "IMG-R",
    "owner": "CAPSP",
    "state": "US"
   },
   "omm": {
    "OBJECT_NAME": "CAPELLA-11 (ACADIA-1)",
    "OBJECT_ID": "2023-126A",
    "EPOCH": "2026-07-10T06:34:49.846656",
    "MEAN_MOTION": 14.84779502,
    "ECCENTRICITY": 0.0002161,
    "INCLINATION": 53.0069,
    "RA_OF_ASC_NODE": 84.6811,
    "ARG_OF_PERICENTER": 108.2589,
    "MEAN_ANOMALY": 251.8626,
    "EPHEMERIS_TYPE": 0,
    "CLASSIFICATION_TYPE": "U",
    "NORAD_CAT_ID": 57693,
    "ELEMENT_SET_NO": 999,
    "REV_AT_EPOCH": 15555,
    "BSTAR": 0.00031726618,
    "MEAN_MOTION_DOT": 0.00002487,
    "MEAN_MOTION_DDOT": 0
   }
  },
  {
   "norad": 60419,
   "name": "CAPELLA-13 (ACADIA-3)",
   "intl": "2024-142A",
   "group": "sar",
   "gcat": {
    "class": "B",
    "category": "IMG-R",
    "owner": "CAPSP",
    "state": "US"
   },
   "omm": {
    "OBJECT_NAME": "CAPELLA-13 (ACADIA-3)",
    "OBJECT_ID": "2024-142A",
    "EPOCH": "2026-07-11T19:44:04.743168",
    "MEAN_MOTION": 14.87644522,
    "ECCENTRICITY": 0.00013262,
    "INCLINATION": 53.006,
    "RA_OF_ASC_NODE": 310.0351,
    "ARG_OF_PERICENTER": 91.4802,
    "MEAN_ANOMALY": 268.6331,
    "EPHEMERIS_TYPE": 0,
    "CLASSIFICATION_TYPE": "U",
    "NORAD_CAT_ID": 60419,
    "ELEMENT_SET_NO": 999,
    "REV_AT_EPOCH": 10407,
    "BSTAR": 0.00029092057,
    "MEAN_MOTION_DOT": 0.00002436,
    "MEAN_MOTION_DDOT": 0
   }
  },
  {
   "norad": 59444,
   "name": "CAPELLA-14 (ACADIA-4)",
   "intl": "2024-066C",
   "group": "sar",
   "gcat": {
    "class": "B",
    "category": "IMG-R",
    "owner": "CAPSP",
    "state": "US"
   },
   "omm": {
    "OBJECT_NAME": "CAPELLA-14 (ACADIA-4)",
    "OBJECT_ID": "2024-066C",
    "EPOCH": "2026-07-10T09:37:37.930080",
    "MEAN_MOTION": 15.09192985,
    "ECCENTRICITY": 0.00002568,
    "INCLINATION": 45.6019,
    "RA_OF_ASC_NODE": 133.0062,
    "ARG_OF_PERICENTER": 292.39,
    "MEAN_ANOMALY": 67.6958,
    "EPHEMERIS_TYPE": 0,
    "CLASSIFICATION_TYPE": "U",
    "NORAD_CAT_ID": 59444,
    "ELEMENT_SET_NO": 999,
    "REV_AT_EPOCH": 11599,
    "BSTAR": 0.00051362493,
    "MEAN_MOTION_DOT": 0.00008048,
    "MEAN_MOTION_DDOT": 0
   }
  },
  {
   "norad": 60544,
   "name": "CAPELLA-15 (ACADIA-5)",
   "intl": "2024-149CE",
   "group": "sar",
   "gcat": {
    "class": "B",
    "category": "IMG-R",
    "owner": "CAPSP",
    "state": "US"
   },
   "omm": {
    "OBJECT_NAME": "CAPELLA-15 (ACADIA-5)",
    "OBJECT_ID": "2024-149CE",
    "EPOCH": "2026-07-08T18:40:01.354944",
    "MEAN_MOTION": 14.92382217,
    "ECCENTRICITY": 0.00033866,
    "INCLINATION": 97.6776,
    "RA_OF_ASC_NODE": 262.1397,
    "ARG_OF_PERICENTER": 8.7995,
    "MEAN_ANOMALY": 351.3283,
    "EPHEMERIS_TYPE": 0,
    "CLASSIFICATION_TYPE": "U",
    "NORAD_CAT_ID": 60544,
    "ELEMENT_SET_NO": 999,
    "REV_AT_EPOCH": 10307,
    "BSTAR": 0.00020207209,
    "MEAN_MOTION_DOT": 0.00002013,
    "MEAN_MOTION_DDOT": 0
   }
  },
  {
   "norad": 65318,
   "name": "CAPELLA-16 (ACADIA-6)",
   "intl": "2025-188D",
   "group": "sar",
   "gcat": {
    "class": "B",
    "category": "IMG-R",
    "owner": "CAPSP",
    "state": "US"
   },
   "omm": {
    "OBJECT_NAME": "CAPELLA-16 (ACADIA-6)",
    "OBJECT_ID": "2025-188D",
    "EPOCH": "2026-07-11T19:19:53.080608",
    "MEAN_MOTION": 14.94024784,
    "ECCENTRICITY": 0.00054654,
    "INCLINATION": 97.7377,
    "RA_OF_ASC_NODE": 267.5879,
    "ARG_OF_PERICENTER": 145.6698,
    "MEAN_ANOMALY": 214.4876,
    "EPHEMERIS_TYPE": 0,
    "CLASSIFICATION_TYPE": "U",
    "NORAD_CAT_ID": 65318,
    "ELEMENT_SET_NO": 999,
    "REV_AT_EPOCH": 4759,
    "BSTAR": 0.00032109305,
    "MEAN_MOTION_DOT": 0.00003369,
    "MEAN_MOTION_DDOT": 0
   }
  },
  {
   "norad": 64583,
   "name": "CAPELLA-17 (ACADIA-7)",
   "intl": "2025-135BH",
   "group": "sar",
   "gcat": {
    "class": "B",
    "category": "IMG-R",
    "owner": "CAPSP",
    "state": "US"
   },
   "omm": {
    "OBJECT_NAME": "CAPELLA-17 (ACADIA-7)",
    "OBJECT_ID": "2025-135BH",
    "EPOCH": "2026-07-11T19:48:35.399808",
    "MEAN_MOTION": 14.91599654,
    "ECCENTRICITY": 0.00039646,
    "INCLINATION": 97.7704,
    "RA_OF_ASC_NODE": 306.0834,
    "ARG_OF_PERICENTER": 264.8386,
    "MEAN_ANOMALY": 95.238,
    "EPHEMERIS_TYPE": 0,
    "CLASSIFICATION_TYPE": "U",
    "NORAD_CAT_ID": 64583,
    "ELEMENT_SET_NO": 999,
    "REV_AT_EPOCH": 5752,
    "BSTAR": 0.00030871222,
    "MEAN_MOTION_DOT": 0.00003043,
    "MEAN_MOTION_DDOT": 0
   }
  },
  {
   "norad": 67385,
   "name": "CAPELLA-18 (ACADIA-8)",
   "intl": "2026-004Y",
   "group": "sar",
   "gcat": {
    "class": "B",
    "category": "IMG-R",
    "owner": "CAPSP",
    "state": "US"
   },
   "omm": {
    "OBJECT_NAME": "CAPELLA-18 (ACADIA-8)",
    "OBJECT_ID": "2026-004Y",
    "EPOCH": "2026-07-11T12:09:44.043264",
    "MEAN_MOTION": 14.8663859,
    "ECCENTRICITY": 0.00021551,
    "INCLINATION": 97.8089,
    "RA_OF_ASC_NODE": 190.6063,
    "ARG_OF_PERICENTER": 116.8459,
    "MEAN_ANOMALY": 243.2977,
    "EPHEMERIS_TYPE": 0,
    "CLASSIFICATION_TYPE": "U",
    "NORAD_CAT_ID": 67385,
    "ELEMENT_SET_NO": 999,
    "REV_AT_EPOCH": 2689,
    "BSTAR": 0.00008302411,
    "MEAN_MOTION_DOT": 0.00000683,
    "MEAN_MOTION_DDOT": 0
   }
  },
  {
   "norad": 67384,
   "name": "CAPELLA-19 (ACADIA-9)",
   "intl": "2026-004X",
   "group": "sar",
   "gcat": {
    "class": "B",
    "category": "IMG-R",
    "owner": "CAPSP",
    "state": "US"
   },
   "omm": {
    "OBJECT_NAME": "CAPELLA-19 (ACADIA-9)",
    "OBJECT_ID": "2026-004X",
    "EPOCH": "2026-07-11T13:32:11.815296",
    "MEAN_MOTION": 14.86644205,
    "ECCENTRICITY": 0.00015448,
    "INCLINATION": 97.7969,
    "RA_OF_ASC_NODE": 190.5042,
    "ARG_OF_PERICENTER": 131.1446,
    "MEAN_ANOMALY": 228.9903,
    "EPHEMERIS_TYPE": 0,
    "CLASSIFICATION_TYPE": "U",
    "NORAD_CAT_ID": 67384,
    "ELEMENT_SET_NO": 999,
    "REV_AT_EPOCH": 2689,
    "BSTAR": 0.00030209689,
    "MEAN_MOTION_DOT": 0.00002628,
    "MEAN_MOTION_DDOT": 0
   }
  }
 ]
}
